0 COSMOS 2139 (GLONASS)
1 21216U 91025A   13280.71052591  .00000065  00000-0  00000+0 0  7261
2 21216 064.1057 105.2190 0014592 213.3969 182.5103 02.13103116175235
0 COSMOS 2139 (GLONASS)
1 21216U 91025A   13284.27473223  .00000073  00000-0  00000+0 0  7275
2 21216 064.1068 105.0948 0014559 213.4105 036.8506 02.13103241175307
0 COSMOS 2139 (GLONASS)
1 21216U 91025A   13286.79676100  .00000084  00000-0  00000+0 0  7286
2 21216 064.1076 105.0069 0014545 213.4711 171.6171 02.13103317175364
0 COSMOS 2139 (GLONASS)
1 21216U 91025A   13291.45653928  .00000045  00000-0  00000+0 0  7296
2 21216 064.1086 104.8443 0014559 213.1675 146.7696 02.13103019175453
0 COSMOS 2139 (GLONASS)
1 21216U 91025A   13293.67295102  .00000028  00000-0  00000+0 0  7301
2 21216 064.1097 104.7674 0014549 213.4422 046.8652 02.13103374175504
